[{"OBJECT_NAME":"STARLINK-35633","OBJECT_ID":"2025-240S","EPOCH":"2026-03-09T06:10:18.996384","MEAN_MOTION":15.30186772,"ECCENTRICITY":0.00014847,"INCLINATION":53.1605,"RA_OF_ASC_NODE":64.7039,"ARG_OF_PERICENTER":115.4098,"MEAN_ANOMALY":244.7056,"EPHEMERIS_TYPE":0,"CLASSIFICATION_TYPE":"U","NORAD_CAT_ID":66162,"ELEMENT_SET_NO":999,"REV_AT_EPOCH":2192,"BSTAR":0.00045942391,"MEAN_MOTION_DOT":0.00013266,"MEAN_MOTION_DDOT":0},{"OBJECT_NAME":"KUIPER-00175","OBJECT_ID":"2025-301C","EPOCH":"2026-03-09T23:30:37.840032","MEAN_MOTION":15.30996371,"ECCENTRICITY":0.00022792,"INCLINATION":51.8781,"RA_OF_ASC_NODE":63.6978,"ARG_OF_PERICENTER":50.5695,"MEAN_ANOMALY":309.549,"EPHEMERIS_TYPE":0,"CLASSIFICATION_TYPE":"U","NORAD_CAT_ID":67135,"ELEMENT_SET_NO":999,"REV_AT_EPOCH":1385,"BSTAR":0.00066732304,"MEAN_MOTION_DOT":0.00019968,"MEAN_MOTION_DDOT":0}]
